{"type": "FeatureCollection", "features": [ {"type": "Feature", "properties": {"norad_id": 42741, "name": "EUTELSAT 172B", "group": "eutelsat", "lat": -0.008271076673311723, "lon": 53.376142356420836, "alt_km": 35786.40346317227, "timestamp": "2025-12-25T09:48:51.957606+00:00", "meta": {"OBJECT_NAME": "EUTELSAT 172B", "OBJECT_ID": "2017-029B", "EPOCH": "2025-12-24T22:28:24.706848", "MEAN_MOTION": 1.00270189, "ECCENTRICITY": 1.3e-05, "INCLINATION": 0.0321, "RA_OF_ASC_NODE": 134.3587, "ARG_OF_PERICENTER": 357.8756, "MEAN_ANOMALY": 110.5732, "EPHEMERIS_TYPE": 0, "CLASSIFICATION_TYPE": "U", "NORAD_CAT_ID": 42741, "ELEMENT_SET_NO": 999, "REV_AT_EPOCH": 3198, "BSTAR": 0, "MEAN_MOTION_DOT": 1.5e-07, "MEAN_MOTION_DDOT": 0}, "tle": {"line1": "1 42741U 17029B   25358.93639707  .00000015  00000+0  00000+0 0  9998", "line2": "2 42741   0.0321 134.3587 0000130 357.8756 110.5732  1.00270189 31980"}}, "geometry": {"type": "Point", "coordinates": [53.376142356420836, -0.008271076673311723]}}, {"type": "Feature", "properties": {"norad_id": 44334, "name": "EUTELSAT 7C", "group": "eutelsat", "lat": 0.0515506624680198, "lon": -111.65496901026334, "alt_km": 35773.114566047116, "timestamp": "2025-12-25T09:48:51.957618+00:00", "meta": {"OBJECT_NAME": "EUTELSAT 7C", "OBJECT_ID": "2019-034B", "EPOCH": "2025-12-24T14:50:38.546016", "MEAN_MOTION": 1.00270796, "ECCENTRICITY": 0.00031593, "INCLINATION": 0.0726, "RA_OF_ASC_NODE": 177.7928, "ARG_OF_PERICENTER": 79.9691, "MEAN_ANOMALY": 65.2631, "EPHEMERIS_TYPE": 0, "CLASSIFICATION_TYPE": "U", "NORAD_CAT_ID": 44334, "ELEMENT_SET_NO": 999, "REV_AT_EPOCH": 508, "BSTAR": 0, "MEAN_MOTION_DOT": 6.9e-07, "MEAN_MOTION_DDOT": 0}, "tle": {"line1": "1 44334U 19034B   25358.61850169  .00000069  00000+0  00000+0 0  9997", "line2": "2 44334   0.0726 177.7928 0003159  79.9691  65.2631  1.00270796  5083"}}, "geometry": {"type": "Point", "coordinates": [-111.65496901026334, 0.0515506624680198]}}, {"type": "Feature", "properties": {"norad_id": 44624, "name": "EUTELSAT 5 WEST B", "group": "eutelsat", "lat": -0.0744922174607901, "lon": -123.64088270735333, "alt_km": 35775.52199839435, "timestamp": "2025-12-25T09:48:51.957631+00:00", "meta": {"OBJECT_NAME": "EUTELSAT 5 WEST B", "OBJECT_ID": "2019-067A", "EPOCH": "2025-12-24T21:38:07.024416", "MEAN_MOTION": 1.00271315, "ECCENTRICITY": 0.0003135, "INCLINATION": 0.063, "RA_OF_ASC_NODE": 343.8095, "ARG_OF_PERICENTER": 288.8779, "MEAN_ANOMALY": 140.5133, "EPHEMERIS_TYPE": 0, "CLASSIFICATION_TYPE": "U", "NORAD_CAT_ID": 44624, "ELEMENT_SET_NO": 999, "REV_AT_EPOCH": 2268, "BSTAR": 0, "MEAN_MOTION_DOT": -2.1e-07, "MEAN_MOTION_DDOT": 0}, "tle": {"line1": "1 44624U 19067A   25358.90147019 -.00000021  00000+0  00000+0 0  9999", "line2": "2 44624   0.0630 343.8095 0003135 288.8779 140.5133  1.00271315 22689"}}, "geometry": {"type": "Point", "coordinates": [-123.64088270735333, -0.0744922174607901]}}, {"type": "Feature", "properties": {"norad_id": 45027, "name": "EUTELSAT KONNECT", "group": "eutelsat", "lat": 0.014263794105656797, "lon": -111.43271146995095, "alt_km": 35781.29682422088, "timestamp": "2025-12-25T09:48:51.957642+00:00", "meta": {"OBJECT_NAME": "EUTELSAT KONNECT", "OBJECT_ID": "2020-005B", "EPOCH": "2025-12-24T14:50:46.034304", "MEAN_MOTION": 1.00269906, "ECCENTRICITY": 0.00014622, "INCLINATION": 0.0704, "RA_OF_ASC_NODE": 94.2724, "ARG_OF_PERICENTER": 186.2921, "MEAN_ANOMALY": 42.7194, "EPHEMERIS_TYPE": 0, "CLASSIFICATION_TYPE": "U", "NORAD_CAT_ID": 45027, "ELEMENT_SET_NO": 999, "REV_AT_EPOCH": 2258, "BSTAR": 0, "MEAN_MOTION_DOT": 7e-07, "MEAN_MOTION_DDOT": 0}, "tle": {"line1": "1 45027U 20005B   25358.61858836  .00000070  00000+0  00000+0 0  9998", "line2": "2 45027   0.0704  94.2724 0001462 186.2921  42.7194  1.00269906 22588"}}, "geometry": {"type": "Point", "coordinates": [-111.43271146995095, 0.014263794105656797]}}, {"type": "Feature", "properties": {"norad_id": 49056, "name": "EUTELSAT QUANTUM", "group": "eutelsat", "lat": -0.03229653373047498, "lon": -70.91493500817273, "alt_km": 35771.67466090477, "timestamp": "2025-12-25T09:48:51.957654+00:00", "meta": {"OBJECT_NAME": "EUTELSAT QUANTUM", "OBJECT_ID": "2021-069B", "EPOCH": "2025-12-24T21:53:13.077888", "MEAN_MOTION": 1.00270972, "ECCENTRICITY": 0.00034713, "INCLINATION": 0.0114, "RA_OF_ASC_NODE": 15.3985, "ARG_OF_PERICENTER": 266.5825, "MEAN_ANOMALY": 187.7051, "EPHEMERIS_TYPE": 0, "CLASSIFICATION_TYPE": "U", "NORAD_CAT_ID": 49056, "ELEMENT_SET_NO": 999, "REV_AT_EPOCH": 1618, "BSTAR": 0, "MEAN_MOTION_DOT": 1.47e-06, "MEAN_MOTION_DDOT": 0}, "tle": {"line1": "1 49056U 21069B   25358.91195692  .00000147  00000+0  00000+0 0  9997", "line2": "2 49056   0.0114  15.3985 0003471 266.5825 187.7051  1.00270972 16185"}}, "geometry": {"type": "Point", "coordinates": [-70.91493500817273, -0.03229653373047498]}}, {"type": "Feature", "properties": {"norad_id": 53765, "name": "EUTELSAT KONNECT VHTS", "group": "eutelsat", "lat": 0.01758322968880207, "lon": -115.91147222305644, "alt_km": 35776.7562372129, "timestamp": "2025-12-25T09:48:51.957666+00:00", "meta": {"OBJECT_NAME": "EUTELSAT KONNECT VHTS", "OBJECT_ID": "2022-110A", "EPOCH": "2025-12-24T21:40:21.809280", "MEAN_MOTION": 1.00267478, "ECCENTRICITY": 0.00024932, "INCLINATION": 0.0601, "RA_OF_ASC_NODE": 98.2899, "ARG_OF_PERICENTER": 150.2235, "MEAN_ANOMALY": 172.9674, "EPHEMERIS_TYPE": 0, "CLASSIFICATION_TYPE": "U", "NORAD_CAT_ID": 53765, "ELEMENT_SET_NO": 999, "REV_AT_EPOCH": 507, "BSTAR": 0, "MEAN_MOTION_DOT": 3.8e-07, "MEAN_MOTION_DDOT": 0}, "tle": {"line1": "1 53765U 22110A   25358.90303020  .00000038  00000+0  00000+0 0  9991", "line2": "2 53765   0.0601  98.2899 0002493 150.2235 172.9674  1.00267478  5079"}}, "geometry": {"type": "Point", "coordinates": [-115.91147222305644, 0.01758322968880207]}}, {"type": "Feature", "properties": {"norad_id": 54048, "name": "EUTELSAT HOTBIRD 13F", "group": "eutelsat", "lat": -0.04535564567475861, "lon": -105.6526925814046, "alt_km": 35789.019799970665, "timestamp": "2025-12-25T09:48:51.957677+00:00", "meta": {"OBJECT_NAME": "EUTELSAT HOTBIRD 13F", "OBJECT_ID": "2022-134A", "EPOCH": "2025-12-24T16:35:06.042624", "MEAN_MOTION": 1.00270762, "ECCENTRICITY": 0.00022006, "INCLINATION": 0.055, "RA_OF_ASC_NODE": 289.1731, "ARG_OF_PERICENTER": 72.2821, "MEAN_ANOMALY": 353.7761, "EPHEMERIS_TYPE": 0, "CLASSIFICATION_TYPE": "U", "NORAD_CAT_ID": 54048, "ELEMENT_SET_NO": 999, "REV_AT_EPOCH": 1162, "BSTAR": 0, "MEAN_MOTION_DOT": 1.08e-06, "MEAN_MOTION_DDOT": 0}, "tle": {"line1": "1 54048U 22134A   25358.69104216  .00000108  00000+0  00000+0 0  9992", "line2": "2 54048   0.0550 289.1731 0002200  72.2821 353.7761  1.00270762 11627"}}, "geometry": {"type": "Point", "coordinates": [-105.6526925814046, -0.04535564567475861]}}, {"type": "Feature", "properties": {"norad_id": 54225, "name": "EUTELSAT HOTBIRD 13G", "group": "eutelsat", "lat": -0.0051314250420052615, "lon": -105.62032788636402, "alt_km": 35785.43570157087, "timestamp": "2025-12-25T09:48:51.957689+00:00", "meta": {"OBJECT_NAME": "EUTELSAT HOTBIRD 13G", "OBJECT_ID": "2022-146A", "EPOCH": "2025-12-24T00:28:38.654112", "MEAN_MOTION": 1.00268836, "ECCENTRICITY": 0.00017131, "INCLINATION": 0.0535, "RA_OF_ASC_NODE": 227.8066, "ARG_OF_PERICENTER": 307.349, "MEAN_ANOMALY": 297.8001, "EPHEMERIS_TYPE": 0, "CLASSIFICATION_TYPE": "U", "NORAD_CAT_ID": 54225, "ELEMENT_SET_NO": 999, "REV_AT_EPOCH": 571, "BSTAR": 0, "MEAN_MOTION_DOT": 1.08e-06, "MEAN_MOTION_DDOT": 0}, "tle": {"line1": "1 54225U 22146A   25358.01989183  .00000108  00000+0  00000+0 0  9992", "line2": "2 54225   0.0535 227.8066 0001713 307.3490 297.8001  1.00268836  5716"}}, "geometry": {"type": "Point", "coordinates": [-105.62032788636402, -0.0051314250420052615]}}, {"type": "Feature", "properties": {"norad_id": 54259, "name": "EUTELSAT 10B", "group": "eutelsat", "lat": 0.007412757144071274, "lon": -108.58978000764905, "alt_km": 35786.99758733191, "timestamp": "2025-12-25T09:48:51.957700+00:00", "meta": {"OBJECT_NAME": "EUTELSAT 10B", "OBJECT_ID": "2022-157A", "EPOCH": "2025-12-24T21:42:21.617568", "MEAN_MOTION": 1.00269971, "ECCENTRICITY": 6.954e-05, "INCLINATION": 0.0597, "RA_OF_ASC_NODE": 95.577, "ARG_OF_PERICENTER": 57.2029, "MEAN_ANOMALY": 276.5084, "EPHEMERIS_TYPE": 0, "CLASSIFICATION_TYPE": "U", "NORAD_CAT_ID": 54259, "ELEMENT_SET_NO": 999, "REV_AT_EPOCH": 1127, "BSTAR": 0, "MEAN_MOTION_DOT": 8.9e-07, "MEAN_MOTION_DDOT": 0}, "tle": {"line1": "1 54259U 22157A   25358.90441687  .00000089  00000+0  00000+0 0  9999", "line2": "2 54259   0.0597  95.5770 0000695  57.2029 276.5084  1.00269971 11274"}}, "geometry": {"type": "Point", "coordinates": [-108.58978000764905, 0.007412757144071274]}}, {"type": "Feature", "properties": {"norad_id": 59346, "name": "EUTELSAT 36D", "group": "eutelsat", "lat": -0.035559864100448806, "lon": -82.73898146141805, "alt_km": 35783.90748893218, "timestamp": "2025-12-25T09:48:51.957712+00:00", "meta": {"OBJECT_NAME": "EUTELSAT 36D", "OBJECT_ID": "2024-059A", "EPOCH": "2025-12-24T21:49:50.901024", "MEAN_MOTION": 1.00275345, "ECCENTRICITY": 6.342e-05, "INCLINATION": 0.0185, "RA_OF_ASC_NODE": 36.8149, "ARG_OF_PERICENTER": 305.8613, "MEAN_ANOMALY": 114.3448, "EPHEMERIS_TYPE": 0, "CLASSIFICATION_TYPE": "U", "NORAD_CAT_ID": 59346, "ELEMENT_SET_NO": 999, "REV_AT_EPOCH": 640, "BSTAR": 0, "MEAN_MOTION_DOT": 1.77e-06, "MEAN_MOTION_DDOT": 0}, "tle": {"line1": "1 59346U 24059A   25358.90961691  .00000177  00000+0  00000+0 0  9994", "line2": "2 59346   0.0185  36.8149 0000634 305.8613 114.3448  1.00275345  6405"}}, "geometry": {"type": "Point", "coordinates": [-82.73898146141805, -0.035559864100448806]}}]}